[
    {
        "OBJECT_NAME": "BEIDOU-3 M11",
        "OBJECT_ID": "2018-067B",
        "EPOCH": "2026-06-20T06:22:43.415328",
        "MEAN_MOTION": 1.86227129,
        "ECCENTRICITY": 0.0004517,
        "INCLINATION": 54.178,
        "RA_OF_ASC_NODE": 180.8993,
        "ARG_OF_PERICENTER": 12.7566,
        "MEAN_ANOMALY": 347.2746,
        "EPHEMERIS_TYPE": 0,
        "CLASSIFICATION_TYPE": "U",
        "NORAD_CAT_ID": 43603,
        "ELEMENT_SET_NO": 999,
        "REV_AT_EPOCH": 5320,
        "BSTAR": 0,
        "MEAN_MOTION_DOT": 6.8e-07,
        "MEAN_MOTION_DDOT": 0
    },
    {
        "OBJECT_NAME": "BEIDOU-3 M13",
        "OBJECT_ID": "2018-072A",
        "EPOCH": "2026-06-21T07:04:08.624928",
        "MEAN_MOTION": 1.86231065,
        "ECCENTRICITY": 0.0007137,
        "INCLINATION": 56.6282,
        "RA_OF_ASC_NODE": 62.524,
        "ARG_OF_PERICENTER": 330.1286,
        "MEAN_ANOMALY": 29.8688,
        "EPHEMERIS_TYPE": 0,
        "CLASSIFICATION_TYPE": "U",
        "NORAD_CAT_ID": 43622,
        "ELEMENT_SET_NO": 999,
        "REV_AT_EPOCH": 5273,
        "BSTAR": 0,
        "MEAN_MOTION_DOT": -8.1e-07,
        "MEAN_MOTION_DDOT": 0
    },
    {
        "OBJECT_NAME": "BEIDOU-3 M14",
        "OBJECT_ID": "2018-072B",
        "EPOCH": "2026-06-21T03:50:21.997248",
        "MEAN_MOTION": 1.8623111,
        "ECCENTRICITY": 0.000612,
        "INCLINATION": 56.63,
        "RA_OF_ASC_NODE": 62.5228,
        "ARG_OF_PERICENTER": 1.7619,
        "MEAN_ANOMALY": 358.2786,
        "EPHEMERIS_TYPE": 0,
        "CLASSIFICATION_TYPE": "U",
        "NORAD_CAT_ID": 43623,
        "ELEMENT_SET_NO": 999,
        "REV_AT_EPOCH": 5272,
        "BSTAR": 0,
        "MEAN_MOTION_DOT": -8e-07,
        "MEAN_MOTION_DDOT": 0
    },
    {
        "OBJECT_NAME": "BEIDOU-3 M16",
        "OBJECT_ID": "2018-078A",
        "EPOCH": "2026-06-20T05:47:32.108640",
        "MEAN_MOTION": 1.86232267,
        "ECCENTRICITY": 0.0007135,
        "INCLINATION": 54.0868,
        "RA_OF_ASC_NODE": 299.8789,
        "ARG_OF_PERICENTER": 41.0909,
        "MEAN_ANOMALY": 318.96,
        "EPHEMERIS_TYPE": 0,
        "CLASSIFICATION_TYPE": "U",
        "NORAD_CAT_ID": 43647,
        "ELEMENT_SET_NO": 999,
        "REV_AT_EPOCH": 5221,
        "BSTAR": 0,
        "MEAN_MOTION_DOT": -9e-07,
        "MEAN_MOTION_DDOT": 0
    },
    {
        "OBJECT_NAME": "BEIDOU-3 M15",
        "OBJECT_ID": "2018-078B",
        "EPOCH": "2026-06-20T08:53:42.177120",
        "MEAN_MOTION": 1.86232388,
        "ECCENTRICITY": 0.0004076,
        "INCLINATION": 54.0825,
        "RA_OF_ASC_NODE": 299.8748,
        "ARG_OF_PERICENTER": 58,
        "MEAN_ANOMALY": 302.0369,
        "EPHEMERIS_TYPE": 0,
        "CLASSIFICATION_TYPE": "U",
        "NORAD_CAT_ID": 43648,
        "ELEMENT_SET_NO": 999,
        "REV_AT_EPOCH": 5223,
        "BSTAR": 0,
        "MEAN_MOTION_DOT": -9.1e-07,
        "MEAN_MOTION_DDOT": 0
    },
    {
        "OBJECT_NAME": "BEIDOU-3 G1",
        "OBJECT_ID": "2018-085A",
        "EPOCH": "2026-06-21T12:07:38.862624",
        "MEAN_MOTION": 1.00270433,
        "ECCENTRICITY": 0.0008152,
        "INCLINATION": 2.8805,
        "RA_OF_ASC_NODE": 97.253,
        "ARG_OF_PERICENTER": 350.3805,
        "MEAN_ANOMALY": 163.9159,
        "EPHEMERIS_TYPE": 0,
        "CLASSIFICATION_TYPE": "U",
        "NORAD_CAT_ID": 43683,
        "ELEMENT_SET_NO": 999,
        "REV_AT_EPOCH": 2810,
        "BSTAR": 0,
        "MEAN_MOTION_DOT": -1.11e-06,
        "MEAN_MOTION_DDOT": 0
    },
    {
        "OBJECT_NAME": "BEIDOU-3 M17",
        "OBJECT_ID": "2018-093A",
        "EPOCH": "2026-06-21T04:32:02.130720",
        "MEAN_MOTION": 1.86228431,
        "ECCENTRICITY": 0.0010176,
        "INCLINATION": 54.1692,
        "RA_OF_ASC_NODE": 182.1601,
        "ARG_OF_PERICENTER": 292.332,
        "MEAN_ANOMALY": 147.9319,
        "EPHEMERIS_TYPE": 0,
        "CLASSIFICATION_TYPE": "U",
        "NORAD_CAT_ID": 43706,
        "ELEMENT_SET_NO": 999,
        "REV_AT_EPOCH": 5161,
        "BSTAR": 0,
        "MEAN_MOTION_DOT": 7.8e-07,
        "MEAN_MOTION_DDOT": 0
    },
    {
        "OBJECT_NAME": "BEIDOU-3 M18",
        "OBJECT_ID": "2018-093B",
        "EPOCH": "2026-06-19T07:43:10.215264",
        "MEAN_MOTION": 1.86226376,
        "ECCENTRICITY": 0.00080161,
        "INCLINATION": 54.1697,
        "RA_OF_ASC_NODE": 182.2155,
        "ARG_OF_PERICENTER": 320.7909,
        "MEAN_ANOMALY": 39.1732,
        "EPHEMERIS_TYPE": 0,
        "CLASSIFICATION_TYPE": "U",
        "NORAD_CAT_ID": 43707,
        "ELEMENT_SET_NO": 999,
        "REV_AT_EPOCH": 5157,
        "BSTAR": 0,
        "MEAN_MOTION_DOT": 5.9e-07,
        "MEAN_MOTION_DDOT": 0
    },
    {
        "OBJECT_NAME": "BEIDOU-3 IGSO-1",
        "OBJECT_ID": "2019-023A",
        "EPOCH": "2026-06-20T13:09:30.279168",
        "MEAN_MOTION": 1.00290704,
        "ECCENTRICITY": 0.0025616,
        "INCLINATION": 58.6998,
        "RA_OF_ASC_NODE": 37.6136,
        "ARG_OF_PERICENTER": 225.5297,
        "MEAN_ANOMALY": 321.1703,
        "EPHEMERIS_TYPE": 0,
        "CLASSIFICATION_TYPE": "U",
        "NORAD_CAT_ID": 44204,
        "ELEMENT_SET_NO": 999,
        "REV_AT_EPOCH": 724,
        "BSTAR": 0,
        "MEAN_MOTION_DOT": -2.29e-06,
        "MEAN_MOTION_DDOT": 0
    },
    {
        "OBJECT_NAME": "BEIDOU-2 G8",
        "OBJECT_ID": "2019-027A",
        "EPOCH": "2026-06-21T13:33:39.678912",
        "MEAN_MOTION": 1.00269615,
        "ECCENTRICITY": 0.0010115,
        "INCLINATION": 1.6705,
        "RA_OF_ASC_NODE": 74.5245,
        "ARG_OF_PERICENTER": 282.4745,
        "MEAN_ANOMALY": 260.6959,
        "EPHEMERIS_TYPE": 0,
        "CLASSIFICATION_TYPE": "U",
        "NORAD_CAT_ID": 44231,
        "ELEMENT_SET_NO": 999,
        "REV_AT_EPOCH": 2612,
        "BSTAR": 0,
        "MEAN_MOTION_DOT": -2.49e-06,
        "MEAN_MOTION_DDOT": 0
    },
    {
        "OBJECT_NAME": "BEIDOU-3 IGSO-2",
        "OBJECT_ID": "2019-035A",
        "EPOCH": "2026-06-21T08:40:24.173760",
        "MEAN_MOTION": 1.00265382,
        "ECCENTRICITY": 0.00393,
        "INCLINATION": 55.2486,
        "RA_OF_ASC_NODE": 158.8257,
        "ARG_OF_PERICENTER": 216.3163,
        "MEAN_ANOMALY": 144.0827,
        "EPHEMERIS_TYPE": 0,
        "CLASSIFICATION_TYPE": "U",
        "NORAD_CAT_ID": 44337,
        "ELEMENT_SET_NO": 999,
        "REV_AT_EPOCH": 2571,
        "BSTAR": 0,
        "MEAN_MOTION_DOT": -7.7e-07,
        "MEAN_MOTION_DDOT": 0
    },
    {
        "OBJECT_NAME": "BEIDOU-3 M24",
        "OBJECT_ID": "2019-061A",
        "EPOCH": "2026-06-21T00:01:37.066080",
        "MEAN_MOTION": 1.86229071,
        "ECCENTRICITY": 0.0008377,
        "INCLINATION": 54.3964,
        "RA_OF_ASC_NODE": 182.5989,
        "ARG_OF_PERICENTER": 358.6905,
        "MEAN_ANOMALY": 1.3314,
        "EPHEMERIS_TYPE": 0,
        "CLASSIFICATION_TYPE": "U",
        "NORAD_CAT_ID": 44542,
        "ELEMENT_SET_NO": 999,
        "REV_AT_EPOCH": 4586,
        "BSTAR": 0,
        "MEAN_MOTION_DOT": 7.6e-07,
        "MEAN_MOTION_DDOT": 0
    },
    {
        "OBJECT_NAME": "BEIDOU-3 M23",
        "OBJECT_ID": "2019-061B",
        "EPOCH": "2026-06-20T04:10:19.814880",
        "MEAN_MOTION": 1.86227398,
        "ECCENTRICITY": 0.00057543,
        "INCLINATION": 54.3949,
        "RA_OF_ASC_NODE": 182.595,
        "ARG_OF_PERICENTER": 338.0602,
        "MEAN_ANOMALY": 98.8908,
        "EPHEMERIS_TYPE": 0,
        "CLASSIFICATION_TYPE": "U",
        "NORAD_CAT_ID": 44543,
        "ELEMENT_SET_NO": 999,
        "REV_AT_EPOCH": 4585,
        "BSTAR": 0,
        "MEAN_MOTION_DOT": 6.6e-07,
        "MEAN_MOTION_DDOT": 0
    }
]